[{"OBJECT_NAME":"STARLINK-5084","OBJECT_ID":"2022-177AH","EPOCH":"2026-03-09T22:00:01.999584","MEAN_MOTION":15.12808158,"ECCENTRICITY":0.00010634,"INCLINATION":43.0006,"RA_OF_ASC_NODE":119.1578,"ARG_OF_PERICENTER":316.9675,"MEAN_ANOMALY":221.8614,"EPHEMERIS_TYPE":0,"CLASSIFICATION_TYPE":"U","NORAD_CAT_ID":54851,"ELEMENT_SET_NO":999,"REV_AT_EPOCH":573,"BSTAR":0.0025942942,"MEAN_MOTION_DOT":0.00046442,"MEAN_MOTION_DDOT":0},{"OBJECT_NAME":"OBJECT D","OBJECT_ID":"2024-094D","EPOCH":"2026-03-09T22:52:46.564608","MEAN_MOTION":15.16422543,"ECCENTRICITY":0.00060254,"INCLINATION":97.3922,"RA_OF_ASC_NODE":142.0851,"ARG_OF_PERICENTER":217.1519,"MEAN_ANOMALY":142.9298,"EPHEMERIS_TYPE":0,"CLASSIFICATION_TYPE":"U","NORAD_CAT_ID":59808,"ELEMENT_SET_NO":999,"REV_AT_EPOCH":10011,"BSTAR":0.0004850971,"MEAN_MOTION_DOT":9.373e-5,"MEAN_MOTION_DDOT":0}]
